start=new Date('2022-06-23T00:00:00.000Z').valueOf();
sats=[{"REF_FRAME":"TEME","ELEMENT_SET_NO":"999","MEAN_ANOMALY":"331.8117","RA_OF_ASC_NODE":"215.9121","BSTAR":"-0.00019937000000","MEAN_MOTION_DOT":"-0.00003461","APOAPSIS":"541.664","COUNTRY_CODE":"US","PERIAPSIS":"537.793","EPOCH":"2022-06-22T19:24:51.655680","MEAN_ELEMENT_THEORY":"SGP4","PERIOD":"95.437","INCLINATION":"53.2171","FILE":"3500001","CLASSIFICATION_TYPE":"U","ECCENTRICITY":"0.00027980","ARG_OF_PERICENTER":"28.3027","LAUNCH_DATE":"2021-12-18","CENTER_NAME":"EARTH","MEAN_MOTION":"15.08845447","OBJECT_NAME":"STARLINK-3265","RCS_SIZE":"LARGE","SITE":"AFWTR","REV_AT_EPOCH":"3195","OBJECT_ID":"2021-125AA","SEMIMAJOR_AXIS":"6917.864","DECAY_DATE":null,"TLE_LINE2":"2 50180  53.2171 215.9121 0002798  28.3027 331.8117 15.08845447 31952","TLE_LINE1":"1 50180U 21125AA  22173.80893120 -.00003461  00000-0 -19937-3 0  9999","TIME_SYSTEM":"UTC","EPHEMERIS_TYPE":"0","GP_ID":"206650316","MEAN_MOTION_DDOT":"0.0000000000000","OBJECT_TYPE":"PAYLOAD","NORAD_CAT_ID":"50180"},{"MEAN_ANOMALY":"325.5803","REF_FRAME":"TEME","ELEMENT_SET_NO":"999","RA_OF_ASC_NODE":"217.7184","BSTAR":"-0.00000032002000","MEAN_MOTION_DOT":"-0.00000293","APOAPSIS":"541.430","EPOCH":"2022-06-22T09:41:57.002208","COUNTRY_CODE":"US","PERIAPSIS":"538.075","MEAN_ELEMENT_THEORY":"SGP4","INCLINATION":"53.2167","PERIOD":"95.438","FILE":"3499789","CLASSIFICATION_TYPE":"U","ECCENTRICITY":"0.00024250","ARG_OF_PERICENTER":"34.5346","LAUNCH_DATE":"2021-12-18","MEAN_MOTION":"15.08837611","CENTER_NAME":"EARTH","RCS_SIZE":"LARGE","OBJECT_NAME":"STARLINK-3285","SITE":"AFWTR","REV_AT_EPOCH":"3185","OBJECT_ID":"2021-125AB","SEMIMAJOR_AXIS":"6917.888","DECAY_DATE":null,"TLE_LINE2":"2 50181  53.2167 217.7184 0002425  34.5346 325.5803 15.08837611 31852","TLE_LINE1":"1 50181U 21125AB  22173.40413197 -.00000293  00000-0 -32002-6 0  9999","TIME_SYSTEM":"UTC","EPHEMERIS_TYPE":"0","GP_ID":"206619934","MEAN_MOTION_DDOT":"0.0000000000000","OBJECT_TYPE":"PAYLOAD","NORAD_CAT_ID":"50181"},{"REV_AT_EPOCH":"3188","OBJECT_ID":"2021-125AC","SEMIMAJOR_AXIS":"6917.894","DECAY_DATE":null,"SITE":"AFWTR","MEAN_MOTION_DDOT":"0.0000000000000","OBJECT_TYPE":"PAYLOAD","NORAD_CAT_ID":"50182","TLE_LINE2":"2 50182  53.2180 217.7520 0002658  30.7622 329.3525 15.08835537 31886","TLE_LINE1":"1 50182U 21125AC  22173.39677262  .00000076  00000-0  22895-4 0  9997","TIME_SYSTEM":"UTC","EPHEMERIS_TYPE":"0","GP_ID":"206620685","MEAN_MOTION_DOT":"0.00000076","APOAPSIS":"541.598","EPOCH":"2022-06-22T09:31:21.154368","COUNTRY_CODE":"US","PERIAPSIS":"537.920","MEAN_ELEMENT_THEORY":"SGP4","MEAN_ANOMALY":"329.3525","REF_FRAME":"TEME","ELEMENT_SET_NO":"999","RA_OF_ASC_NODE":"217.7520","BSTAR":"0.00002289500000","ARG_OF_PERICENTER":"30.7622","LAUNCH_DATE":"2021-12-18","MEAN_MOTION":"15.08835537","CENTER_NAME":"EARTH","RCS_SIZE":"LARGE","OBJECT_NAME":"STARLINK-3277","INCLINATION":"53.2180","PERIOD":"95.438","CLASSIFICATION_TYPE":"U","FILE":"3499789","ECCENTRICITY":"0.00026580"},{"TLE_LINE2":"2 50183  53.2188 218.9345 0002985  21.6037 338.5081 15.08833289 31853","TLE_LINE1":"1 50183U 21125AD  22173.13549041  .00000444  00000-0  46062-4 0  9994","TIME_SYSTEM":"UTC","EPHEMERIS_TYPE":"0","GP_ID":"206620936","MEAN_MOTION_DDOT":"0.0000000000000","OBJECT_TYPE":"PAYLOAD","NORAD_CAT_ID":"50183","SITE":"AFWTR","REV_AT_EPOCH":"3185","OBJECT_ID":"2021-125AD","SEMIMAJOR_AXIS":"6917.901","DECAY_DATE":null,"INCLINATION":"53.2188","PERIOD":"95.438","FILE":"3499789","CLASSIFICATION_TYPE":"U","ECCENTRICITY":"0.00029850","ARG_OF_PERICENTER":"21.6037","LAUNCH_DATE":"2021-12-18","CENTER_NAME":"EARTH","MEAN_MOTION":"15.08833289","RCS_SIZE":"LARGE","OBJECT_NAME":"STARLINK-3281","MEAN_ANOMALY":"338.5081","ELEMENT_SET_NO":"999","REF_FRAME":"TEME","BSTAR":"0.00004606200000","RA_OF_ASC_NODE":"218.9345","MEAN_MOTION_DOT":"0.00000444","APOAPSIS":"541.831","EPOCH":"2022-06-22T03:15:06.371424","COUNTRY_CODE":"US","PERIAPSIS":"537.701","MEAN_ELEMENT_THEORY":"SGP4"},{"REF_FRAME":"TEME","ELEMENT_SET_NO":"999","MEAN_ANOMALY":"329.6599","BSTAR":"-0.00004561200000","RA_OF_ASC_NODE":"217.7104","COUNTRY_CODE":"US","PERIAPSIS":"537.954","EPOCH":"2022-06-22T09:47:14.421120","MEAN_ELEMENT_THEORY":"SGP4","MEAN_MOTION_DOT":"-0.00001014","APOAPSIS":"541.530","CLASSIFICATION_TYPE":"U","FILE":"3499789","ECCENTRICITY":"0.00025840","PERIOD":"95.437","INCLINATION":"53.2156","CENTER_NAME":"EARTH","MEAN_MOTION":"15.08841104","RCS_SIZE":"LARGE","OBJECT_NAME":"STARLINK-3279","ARG_OF_PERICENTER":"30.4543","LAUNCH_DATE":"2021-12-18","SITE":"AFWTR","OBJECT_ID":"2021-125AF","SEMIMAJOR_AXIS":"6917.877","DECAY_DATE":null,"REV_AT_EPOCH":"3185","TIME_SYSTEM":"UTC","GP_ID":"206621173","EPHEMERIS_TYPE":"0","TLE_LINE2":"2 50185  53.2156 217.7104 0002584  30.4543 329.6599 15.08841104 31855","TLE_LINE1":"1 50185U 21125AF  22173.40780580 -.00001014  00000-0 -45612-4 0  9997","OBJECT_TYPE":"PAYLOAD","NORAD_CAT_ID":"50185","MEAN_MOTION_DDOT":"0.0000000000000"},{"PERIAPSIS":"537.768","COUNTRY_CODE":"US","EPOCH":"2022-06-22T10:07:07.315680","MEAN_ELEMENT_THEORY":"SGP4","MEAN_MOTION_DOT":"0.00000420","APOAPSIS":"541.739","ELEMENT_SET_NO":"999","REF_FRAME":"TEME","MEAN_ANOMALY":"336.3447","RA_OF_ASC_NODE":"227.6362","BSTAR":"0.00004451500000","MEAN_MOTION":"15.08837431","CENTER_NAME":"EARTH","RCS_SIZE":"LARGE","OBJECT_NAME":"STARLINK-3274","ARG_OF_PERICENTER":"23.7677","LAUNCH_DATE":"2021-12-18","CLASSIFICATION_TYPE":"U","FILE":"3499789","ECCENTRICITY":"0.00028700","PERIOD":"95.438","INCLINATION":"53.2172","OBJECT_ID":"2021-125AG","DECAY_DATE":null,"SEMIMAJOR_AXIS":"6917.888","REV_AT_EPOCH":"3170","SITE":"AFWTR","OBJECT_TYPE":"PAYLOAD","NORAD_CAT_ID":"50186","MEAN_MOTION_DDOT":"0.0000000000000","TIME_SYSTEM":"UTC","GP_ID":"206620435","EPHEMERIS_TYPE":"0","TLE_LINE2":"2 50186  53.2172 227.6362 0002870  23.7677 336.3447 15.08837431 31700","TLE_LINE1":"1 50186U 21125AG  22173.42161245  .00000420  00000-0  44515-4 0  9990"},{"OBJECT_TYPE":"PAYLOAD","NORAD_CAT_ID":"50187","MEAN_MOTION_DDOT":"0.0000000000000","TIME_SYSTEM":"UTC","EPHEMERIS_TYPE":"0","GP_ID":"206649816","TLE_LINE2":"2 50187  53.2153 206.0310 0002095  41.4116 318.7035 15.08827407 32023","TLE_LINE1":"1 50187U 21125AH  22173.78041755 -.00000884  00000-0 -37466-4 0  9996","OBJECT_ID":"2021-125AH","SEMIMAJOR_AXIS":"6917.919","DECAY_DATE":null,"REV_AT_EPOCH":"3202","SITE":"AFWTR","CENTER_NAME":"EARTH","MEAN_MOTION":"15.08827407","OBJECT_NAME":"STARLINK-3272","RCS_SIZE":"LARGE","ARG_OF_PERICENTER":"41.4116","LAUNCH_DATE":"2021-12-18","CLASSIFICATION_TYPE":"U","FILE":"3500001","ECCENTRICITY":"0.00020950","INCLINATION":"53.2153","PERIOD":"95.438","EPOCH":"2022-06-22T18:43:48.076320","PERIAPSIS":"538.335","COUNTRY_CODE":"US","MEAN_ELEMENT_THEORY":"SGP4","MEAN_MOTION_DOT":"-0.00000884","APOAPSIS":"541.233","MEAN_ANOMALY":"318.7035","ELEMENT_SET_NO":"999","REF_FRAME":"TEME","RA_OF_ASC_NODE":"206.0310","BSTAR":"-0.00003746600000"},{"MEAN_MOTION_DOT":"0.00000734","APOAPSIS":"541.286","COUNTRY_CODE":"US","PERIAPSIS":"538.169","EPOCH":"2022-06-22T18:49:05.358720","MEAN_ELEMENT_THEORY":"SGP4","ELEMENT_SET_NO":"999","REF_FRAME":"TEME","MEAN_ANOMALY":"319.3988","BSTAR":"0.00006424000000","RA_OF_ASC_NODE":"206.0084","ARG_OF_PERICENTER":"40.7172","LAUNCH_DATE":"2021-12-18","CENTER_NAME":"EARTH","MEAN_MOTION":"15.08845728","OBJECT_NAME":"STARLINK-3275","RCS_SIZE":"LARGE","PERIOD":"95.437","INCLINATION":"53.2143","FILE":"3500001","CLASSIFICATION_TYPE":"U","ECCENTRICITY":"0.00022530","REV_AT_EPOCH":"3208","OBJECT_ID":"2021-125AJ","DECAY_DATE":null,"SEMIMAJOR_AXIS":"6917.863","SITE":"AFWTR","MEAN_MOTION_DDOT":"0.0000000000000","OBJECT_TYPE":"PAYLOAD","NORAD_CAT_ID":"50188","TLE_LINE2":"2 50188  53.2143 206.0084 0002253  40.7172 319.3988 15.08845728 32087","TLE_LINE1":"1 50188U 21125AJ  22173.78408980  .00000734  00000-0  64240-4 0  9996","TIME_SYSTEM":"UTC","EPHEMERIS_TYPE":"0","GP_ID":"206650066"},{"ELEMENT_SET_NO":"999","REF_FRAME":"TEME","MEAN_ANOMALY":"309.2923","BSTAR":"0.00000522080000","RA_OF_ASC_NODE":"215.7079","MEAN_MOTION_DOT":"-0.00000205","APOAPSIS":"541.032","COUNTRY_CODE":"US","PERIAPSIS":"538.492","EPOCH":"2022-06-22T20:28:27.340608","MEAN_ELEMENT_THEORY":"SGP4","PERIOD":"95.438","INCLINATION":"53.2163","FILE":"3500001","CLASSIFICATION_TYPE":"U","ECCENTRICITY":"0.00018360","ARG_OF_PERICENTER":"50.8232","LAUNCH_DATE":"2021-12-18","MEAN_MOTION":"15.08834636","CENTER_NAME":"EARTH","RCS_SIZE":"LARGE","OBJECT_NAME":"STARLINK-3276","SITE":"AFWTR","REV_AT_EPOCH":"3195","OBJECT_ID":"2021-125AK","SEMIMAJOR_AXIS":"6917.897","DECAY_DATE":null,"TLE_LINE2":"2 50189  53.2163 215.7079 0001836  50.8232 309.2923 15.08834636 31954","TLE_LINE1":"1 50189U 21125AK  22173.85309422 -.00000205  00000-0  52208-5 0  9992","TIME_SYSTEM":"UTC","EPHEMERIS_TYPE":"0","GP_ID":"206650317","MEAN_MOTION_DDOT":"0.0000000000000","OBJECT_TYPE":"PAYLOAD","NORAD_CAT_ID":"50189"},{"BSTAR":"0.00000488820000","RA_OF_ASC_NODE":"209.0500","MEAN_ANOMALY":"323.4565","REF_FRAME":"TEME","ELEMENT_SET_NO":"999","MEAN_ELEMENT_THEORY":"SGP4","EPOCH":"2022-06-22T02:34:02.532864","COUNTRY_CODE":"US","PERIAPSIS":"538.079","APOAPSIS":"541.461","MEAN_MOTION_DOT":"-0.00000211","ECCENTRICITY":"0.00024440","CLASSIFICATION_TYPE":"U","FILE":"3499789","INCLINATION":"53.2151","PERIOD":"95.438","RCS_SIZE":"LARGE","OBJECT_NAME":"STARLINK-3268","MEAN_MOTION":"15.08832005","CENTER_NAME":"EARTH","LAUNCH_DATE":"2021-12-18","ARG_OF_PERICENTER":"36.6594","SITE":"AFWTR","SEMIMAJOR_AXIS":"6917.905","DECAY_DATE":null,"OBJECT_ID":"2021-125AL","REV_AT_EPOCH":"3193","GP_ID":"206619935","EPHEMERIS_TYPE":"0","TIME_SYSTEM":"UTC","TLE_LINE1":"1 50190U 21125AL  22173.10697376 -.00000211  00000-0  48882-5 0  9990","TLE_LINE2":"2 50190  53.2151 209.0500 0002444  36.6594 323.4565 15.08832005 31933","NORAD_CAT_ID":"50190","OBJECT_TYPE":"PAYLOAD","MEAN_MOTION_DDOT":"0.0000000000000"}];
